[{"OBJECT_NAME":"STARLINK-1679","OBJECT_ID":"2020-070AB","EPOCH":"2026-03-10T00:00:02.999808","MEAN_MOTION":15.5813212,"ECCENTRICITY":0.00035105,"INCLINATION":53.046,"RA_OF_ASC_NODE":122.6633,"ARG_OF_PERICENTER":245.3891,"MEAN_ANOMALY":271.8792,"EPHEMERIS_TYPE":0,"CLASSIFICATION_TYPE":"U","NORAD_CAT_ID":46557,"ELEMENT_SET_NO":999,"REV_AT_EPOCH":592,"BSTAR":0.0024151484,"MEAN_MOTION_DOT":0.00189169,"MEAN_MOTION_DDOT":0},{"OBJECT_NAME":"HAWK-3A","OBJECT_ID":"2021-059CG","EPOCH":"2026-03-09T11:39:03.628224","MEAN_MOTION":15.61551971,"ECCENTRICITY":0.00052261,"INCLINATION":97.6805,"RA_OF_ASC_NODE":259.1386,"ARG_OF_PERICENTER":339.6521,"MEAN_ANOMALY":20.4527,"EPHEMERIS_TYPE":0,"CLASSIFICATION_TYPE":"U","NORAD_CAT_ID":48957,"ELEMENT_SET_NO":999,"REV_AT_EPOCH":26225,"BSTAR":0.00045883562,"MEAN_MOTION_DOT":0.00039356,"MEAN_MOTION_DDOT":0}]
